{
  "type": "FeatureCollection",
  "features": [
    {
      "type": "Feature",
      "properties": {
        "norad_id": 66545,
        "name": "SHIJIAN-30A",
        "group": "last-30-days",
        "lat": -47.308516872508555,
        "lon": -116.07975755432194,
        "alt_km": 523.0219827498104,
        "timestamp": "2025-12-05T19:30:24.350882+00:00",
        "meta_object_name": "SHIJIAN-30A",
        "meta_object_id": "2025-266A",
        "meta_epoch": "2025-12-05T07:19:52.730688",
        "meta_mean_motion": 15.15418106,
        "meta_eccentricity": 0.00128141,
        "meta_inclination": 51.7999,
        "meta_ra_of_asc_node": 7.6886,
        "meta_arg_of_pericenter": 330.1284,
        "meta_mean_anomaly": 29.896,
        "meta_ephemeris_type": 0,
        "meta_classification_type": "U",
        "meta_norad_cat_id": 66545,
        "meta_element_set_no": 999,
        "meta_rev_at_epoch": 245,
        "meta_bstar": 0.0010120143,
        "meta_mean_motion_dot": 0.0001914,
        "meta_mean_motion_ddot": 0,
        "tle_line1": "1 66545U 25266A   25339.30547142  .00019140  00000+0  10120-2 0  9995",
        "tle_line2": "2 66545  51.7999   7.6886 0012814 330.1284  29.8960 15.15418106  2457"
      },
      "geometry": {
        "type": "Point",
        "coordinates": [
          -116.07975755432194,
          -47.308516872508555
        ]
      }
    },
    {
      "type": "Feature",
      "properties": {
        "norad_id": 66546,
        "name": "SHIJIAN-30B",
        "group": "last-30-days",
        "lat": -45.19547111036665,
        "lon": -122.22248544712527,
        "alt_km": 523.9106705966287,
        "timestamp": "2025-12-05T19:30:24.350892+00:00",
        "meta_object_name": "SHIJIAN-30B",
        "meta_object_id": "2025-266B",
        "meta_epoch": "2025-12-05T07:21:10.865664",
        "meta_mean_motion": 15.1549224,
        "meta_eccentricity": 0.001053,
        "meta_inclination": 51.7982,
        "meta_ra_of_asc_node": 7.6922,
        "meta_arg_of_pericenter": 333.2101,
        "meta_mean_anomaly": 26.833,
        "meta_ephemeris_type": 0,
        "meta_classification_type": "U",
        "meta_norad_cat_id": 66546,
        "meta_element_set_no": 999,
        "meta_rev_at_epoch": 245,
        "meta_bstar": 0.0011638803,
        "meta_mean_motion_dot": 0.00022102,
        "meta_mean_motion_ddot": 0,
        "tle_line1": "1 66546U 25266B   25339.30637576  .00022102  00000+0  11639-2 0  9995",
        "tle_line2": "2 66546  51.7982   7.6922 0010530 333.2101  26.8330 15.15492240  2455"
      },
      "geometry": {
        "type": "Point",
        "coordinates": [
          -122.22248544712527,
          -45.19547111036665
        ]
      }
    },
    {
      "type": "Feature",
      "properties": {
        "norad_id": 66547,
        "name": "SHIJIAN-30C",
        "group": "last-30-days",
        "lat": -43.2401800587363,
        "lon": -126.89518751683313,
        "alt_km": 523.2192448626965,
        "timestamp": "2025-12-05T19:30:24.350902+00:00",
        "meta_object_name": "SHIJIAN-30C",
        "meta_object_id": "2025-266C",
        "meta_epoch": "2025-12-05T07:22:12.615744",
        "meta_mean_motion": 15.15517162,
        "meta_eccentricity": 0.00113748,
        "meta_inclination": 51.7993,
        "meta_ra_of_asc_node": 7.6971,
        "meta_arg_of_pericenter": 325.2753,
        "meta_mean_anomaly": 34.748,
        "meta_ephemeris_type": 0,
        "meta_classification_type": "U",
        "meta_norad_cat_id": 66547,
        "meta_element_set_no": 999,
        "meta_rev_at_epoch": 245,
        "meta_bstar": 0.0010180878,
        "meta_mean_motion_dot": 0.00019304,
        "meta_mean_motion_ddot": 0,
        "tle_line1": "1 66547U 25266C   25339.30709046  .00019304  00000+0  10181-2 0  9999",
        "tle_line2": "2 66547  51.7993   7.6971 0011374 325.2753  34.7480 15.15517162  2458"
      },
      "geometry": {
        "type": "Point",
        "coordinates": [
          -126.89518751683313,
          -43.2401800587363
        ]
      }
    },
    {
      "type": "Feature",
      "properties": {
        "norad_id": 66548,
        "name": "CZ-2C R/B",
        "group": "last-30-days",
        "lat": 16.416837373907164,
        "lon": 17.566164358058433,
        "alt_km": 510.0308038242056,
        "timestamp": "2025-12-05T19:30:24.350912+00:00",
        "meta_object_name": "CZ-2C R/B",
        "meta_object_id": "2025-266D",
        "meta_epoch": "2025-12-05T06:52:21.594720",
        "meta_mean_motion": 15.29936527,
        "meta_eccentricity": 0.00845405,
        "meta_inclination": 52.056,
        "meta_ra_of_asc_node": 6.7834,
        "meta_arg_of_pericenter": 147.6878,
        "meta_mean_anomaly": 212.9326,
        "meta_ephemeris_type": 0,
        "meta_classification_type": "U",
        "meta_norad_cat_id": 66548,
        "meta_element_set_no": 999,
        "meta_rev_at_epoch": 247,
        "meta_bstar": 0.00061125617,
        "meta_mean_motion_dot": 0.00019701,
        "meta_mean_motion_ddot": 0,
        "tle_line1": "1 66548U 25266D   25339.28636105  .00019701  00000+0  61126-3 0  9999",
        "tle_line2": "2 66548  52.0560   6.7834 0084540 147.6878 212.9326 15.29936527  2476"
      },
      "geometry": {
        "type": "Point",
        "coordinates": [
          17.566164358058433,
          16.416837373907164
        ]
      }
    },
    {
      "type": "Feature",
      "properties": {
        "norad_id": 66549,
        "name": "SHIJIAN-28",
        "group": "last-30-days",
        "lat": -14.393415011432939,
        "lon": -171.11621501416138,
        "alt_km": 5279.534220735038,
        "timestamp": "2025-12-05T19:30:24.350924+00:00",
        "meta_object_name": "SHIJIAN-28",
        "meta_object_id": "2025-277A",
        "meta_epoch": "2025-11-30T18:06:43.124256",
        "meta_mean_motion": 2.28019775,
        "meta_eccentricity": 0.7300519,
        "meta_inclination": 14.4344,
        "meta_ra_of_asc_node": 275.4056,
        "meta_arg_of_pericenter": 179.5026,
        "meta_mean_anomaly": 182.358,
        "meta_ephemeris_type": 0,
        "meta_classification_type": "U",
        "meta_norad_cat_id": 66549,
        "meta_element_set_no": 999,
        "meta_rev_at_epoch": 4,
        "meta_bstar": 0.00062085,
        "meta_mean_motion_dot": 6.315e-05,
        "meta_mean_motion_ddot": 0,
        "tle_line1": "1 66549U 25277A   25334.75466579  .00006315  00000+0  62085-3 0  9997",
        "tle_line2": "2 66549  14.4344 275.4056 7300519 179.5026 182.3580  2.28019775    48"
      },
      "geometry": {
        "type": "Point",
        "coordinates": [
          -171.11621501416138,
          -14.393415011432939
        ]
      }
    },
    {
      "type": "Feature",
      "properties": {
        "norad_id": 66550,
        "name": "CZ-7A R/B",
        "group": "last-30-days",
        "lat": 4.615191582035466,
        "lon": -68.41246515830011,
        "alt_km": 30292.415220516257,
        "timestamp": "2025-12-05T19:30:24.350939+00:00",
        "meta_object_name": "CZ-7A R/B",
        "meta_object_id": "2025-277B",
        "meta_epoch": "2025-12-01T03:57:29.558880",
        "meta_mean_motion": 2.40161271,
        "meta_eccentricity": 0.72362879,
        "meta_inclination": 14.4278,
        "meta_ra_of_asc_node": 275.378,
        "meta_arg_of_pericenter": 178.5774,
        "meta_mean_anomaly": 186.2906,
        "meta_ephemeris_type": 0,
        "meta_classification_type": "U",
        "meta_norad_cat_id": 66550,
        "meta_element_set_no": 999,
        "meta_rev_at_epoch": 5,
        "meta_bstar": 4.4603974e-05,
        "meta_mean_motion_dot": 0.00016399,
        "meta_mean_motion_ddot": -7.1945e-08,
        "tle_line1": "1 66550U 25277B   25335.16492545  .00016399 -71945-7  44604-4 0  9993",
        "tle_line2": "2 66550  14.4278 275.3780 7236287 178.5774 186.2906  2.40161271    57"
      },
      "geometry": {
        "type": "Point",
        "coordinates": [
          -68.41246515830011,
          4.615191582035466
        ]
      }
    },
    {
      "type": "Feature",
      "properties": {
        "norad_id": 66551,
        "name": "UNKNOWN",
        "group": "last-30-days",
        "lat": -7.140747292976745,
        "lon": -144.3816530328275,
        "alt_km": 339.5738783745919,
        "timestamp": "2025-12-05T19:30:24.350950+00:00",
        "meta_object_name": "UNKNOWN",
        "meta_object_id": "2025-271AE",
        "meta_epoch": "2025-12-02T16:00:03.000096",
        "meta_mean_motion": 15.87051116,
        "meta_eccentricity": 7.17e-05,
        "meta_inclination": 53.1571,
        "meta_ra_of_asc_node": 236.7807,
        "meta_arg_of_pericenter": 110.7411,
        "meta_mean_anomaly": 313.9012,
        "meta_ephemeris_type": 0,
        "meta_classification_type": "U",
        "meta_norad_cat_id": 66551,
        "meta_element_set_no": 999,
        "meta_rev_at_epoch": 262,
        "meta_bstar": -0.0074303,
        "meta_mean_motion_dot": -0.01709685,
        "meta_mean_motion_ddot": 0,
        "tle_line1": "1 66551U 25271AE  25336.66670139 -.01709685  00000+0 -74303-2 0  9993",
        "tle_line2": "2 66551  53.1571 236.7807 0000717 110.7411 313.9012 15.87051116  2624"
      },
      "geometry": {
        "type": "Point",
        "coordinates": [
          -144.3816530328275,
          -7.140747292976745
        ]
      }
    }
  ]
}